NORAD_CAT_ID,OBJECT_NAME,OBJECT_TYPE,EPOCH,MEAN_MOTION,ECCENTRICITY,INCLINATION,RA_OF_ASC_NODE,ARG_OF_PERICENTER,MEAN_ANOMALY,BSTAR,MEAN_MOTION_DOT,MEAN_MOTION_DDOT,TLE_LINE0,TLE_LINE1,TLE_LINE2,SEMIMAJOR_AXIS,PERIOD,APOGEE,PERIGEE,DECAYED
52693.0,STARLINK-3946,PAYLOAD,2023-02-28 00:34:27,15.08840046,0.0001667,53.2154,67.6523,105.673,254.4446,0.0021274,0.00033732,0.0,0 STARLINK-3946,1 52693U 22053AP  23059.02392454  .00033732  00000-0  21274-2 0  9991,2 52693  53.2154  67.6523 0001667 105.6730 254.4446 15.08840046 43831,6917.88,95.438,540.898,538.592,0.0
52693.0,STARLINK-3946,PAYLOAD,2023-02-28 06:55:59,15.08832853,0.000159,53.2164,66.4636,91.7358,268.3816,0.0011002,0.00017262,0.0,0 STARLINK-3946,1 52693U 22053AP  23059.28888769  .00017262  00000-0  11002-2 0  9996,2 52693  53.2164  66.4636 0001590  91.7358 268.3816 15.08832853 43876,6917.902,95.438,540.867,538.667,0.0
52693.0,STARLINK-3946,PAYLOAD,2023-03-01 03:36:01,15.08838614,0.0001359,53.2159,62.5974,91.8559,268.2589,0.00050216,7.713e-05,0.0,0 STARLINK-3946,1 52693U 22053AP  23060.15001170  .00007713  00000-0  50216-3 0  9998,2 52693  53.2159  62.5974 0001359  91.8559 268.2589 15.08838614 44002,6917.885,95.438,540.69,538.809,0.0
52693.0,STARLINK-3946,PAYLOAD,2023-03-01 09:57:33,15.08848965,0.0001335,53.216,61.4073,93.5782,266.5363,0.0006753,0.00010478,0.0,0 STARLINK-3946,1 52693U 22053AP  23060.41496918  .00010478  00000-0  67530-3 0  9994,2 52693  53.2160  61.4073 0001335  93.5782 266.5363 15.08848965 44442,6917.853,95.437,540.642,538.794,0.0
52693.0,STARLINK-3946,PAYLOAD,2023-03-02 03:26:47,15.08862897,0.0001339,53.2161,58.1362,94.4761,265.6384,0.00060926,9.428e-05,0.0,0 STARLINK-3946,1 52693U 22053AP  23061.14360064  .00009428  00000-0  60926-3 0  9992,2 52693  53.2161  58.1362 0001339  94.4761 265.6384 15.08862897 44159,6917.81,95.436,540.602,538.749,0.0
52693.0,STARLINK-3946,PAYLOAD,2023-03-02 16:09:51,15.08857978,0.0001804,53.2164,55.7558,89.1501,270.9697,0.00015493,2.18e-05,0.0,0 STARLINK-3946,1 52693U 22053AP  23061.67351606  .00002180  00000-0  15493-3 0  9999,2 52693  53.2164  55.7558 0001804  89.1501 270.9697 15.08857978 44231,6917.825,95.436,540.938,538.442,0.0
52693.0,STARLINK-3946,PAYLOAD,2023-03-03 08:03:42,15.08871115,0.0001467,53.2168,52.7854,107.6391,252.4762,0.00088073,0.00013768,0.0,0 STARLINK-3946,1 52693U 22053AP  23062.33590674  .00013768  00000-0  88073-3 0  9991,2 52693  53.2168  52.7854 0001467 107.6391 252.4762 15.08871115 44731,6917.785,95.436,540.665,538.635,0.0
52693.0,STARLINK-3946,PAYLOAD,2023-03-03 16:00:37,15.0886054,0.0001328,53.217,51.2963,97.7291,262.3852,0.00057183,8.83e-05,0.0,0 STARLINK-3946,1 52693U 22053AP  23062.66710554  .00008830  00000-0  57183-3 0  9990,2 52693  53.2170  51.2963 0001328  97.7291 262.3852 15.08860540 44788,6917.818,95.436,540.601,538.764,0.0
52693.0,STARLINK-3946,PAYLOAD,2023-03-03 23:57:33,15.08861428,0.0001037,53.2166,49.8091,90.9466,269.1645,0.00081361,0.00012692,0.0,0 STARLINK-3946,1 52693U 22053AP  23062.99830096  .00012692  00000-0  81361-3 0  9996,2 52693  53.2166  49.8091 0001037  90.9466 269.1645 15.08861428 44437,6917.815,95.436,540.397,538.963,0.0
52693.0,STARLINK-3946,PAYLOAD,2023-03-04 09:29:52,15.08858582,0.0001415,53.217,48.024,80.4771,279.6381,0.00019036,2.744e-05,0.0,0 STARLINK-3946,1 52693U 22053AP  23063.39574090  .00002744  00000-0  19036-3 0  9997,2 52693  53.2170  48.0240 0001415  80.4771 279.6381 15.08858582 44498,6917.824,95.436,540.667,538.71,0.0
52693.0,STARLINK-3946,PAYLOAD,2023-03-04 15:51:25,15.08843009,0.0002088,53.2163,46.8354,79.4156,280.7071,4.9506e-05,5e-06,0.0,0 STARLINK-3946,1 52693U 22053AP  23063.66070907  .00000500  00000-0  49506-4 0  9999,2 52693  53.2163  46.8354 0002088  79.4156 280.7071 15.08843009 44536,6917.871,95.437,541.181,538.292,0.0
52693.0,STARLINK-3946,PAYLOAD,2023-03-05 07:45:17,15.08831535,0.0001807,53.2164,43.8618,80.5152,279.6045,-3.7857e-05,-8.9e-06,0.0,0 STARLINK-3946,1 52693U 22053AP  23064.32311538 -.00000890  00000-0 -37857-4 0  9991,2 52693  53.2164  43.8618 0001807  80.5152 279.6045 15.08831535 44634,6917.906,95.438,541.021,538.521,0.0
52693.0,STARLINK-3946,PAYLOAD,2023-03-05 14:06:49,15.08837412,0.0001498,53.216,42.6719,79.3118,280.8043,0.00018126,2.598e-05,0.0,0 STARLINK-3946,1 52693U 22053AP  23064.58807460  .00002598  00000-0  18126-3 0  9995,2 52693  53.2160  42.6719 0001498  79.3118 280.8043 15.08837412 45074,6917.888,95.438,540.79,538.717,0.0
52693.0,STARLINK-3946,PAYLOAD,2023-03-06 07:36:03,15.08858758,0.0001174,53.2169,39.4001,96.6376,263.475,0.00095877,0.00015012,0.0,0 STARLINK-3946,1 52693U 22053AP  23065.31671129  .00015012  00000-0  95877-3 0  9991,2 52693  53.2169  39.4001 0001174  96.6376 263.4750 15.08858758 44785,6917.823,95.436,540.5,538.876,0.0
52693.0,STARLINK-3946,PAYLOAD,2023-03-06 21:54:32,15.08841084,0.0001472,53.2171,36.7249,82.0861,278.0299,0.00028457,4.244e-05,0.0,0 STARLINK-3946,1 52693U 22053AP  23065.91287852  .00004244  00000-0  28457-3 0  9998,2 52693  53.2171  36.7249 0001472  82.0861 278.0299 15.08841084 45270,6917.877,95.437,540.76,538.724,0.0
52693.0,STARLINK-3946,PAYLOAD,2023-03-07 04:16:04,15.08848655,0.000135,53.2168,35.535,87.8073,272.3074,0.00040569,6.176e-05,0.0,0 STARLINK-3946,1 52693U 22053AP  23066.17783554  .00006176  00000-0  40569-3 0  9991,2 52693  53.2168  35.5350 0001350  87.8073 272.3074 15.08848655 44918,6917.854,95.437,540.653,538.785,0.0
52693.0,STARLINK-3946,PAYLOAD,2023-03-07 15:23:46,15.08841102,0.0001386,53.2166,33.4525,98.6341,261.4809,0.00030654,4.594e-05,0.0,0 STARLINK-3946,1 52693U 22053AP  23066.64151576  .00004594  00000-0  30654-3 0  9992,2 52693  53.2166  33.4525 0001386  98.6341 261.4809 15.08841102 44986,6917.877,95.437,540.701,538.783,0.0
52693.0,STARLINK-3946,PAYLOAD,2023-03-07 21:45:19,15.08843239,0.0001623,53.2168,32.2645,92.6392,267.4786,0.00029338,4.385e-05,0.0,0 STARLINK-3946,1 52693U 22053AP  23066.90647786  .00004385  00000-0  29338-3 0  9999,2 52693  53.2168  32.2645 0001623  92.6392 267.4786 15.08843239 45425,6917.87,95.437,540.858,538.613,0.0
52693.0,STARLINK-3946,PAYLOAD,2023-03-08 21:36:06,15.08846912,0.0001427,53.2164,27.8028,97.6447,262.4707,0.00051719,7.954e-05,0.0,0 STARLINK-3946,1 52693U 22053AP  23067.90008054  .00007954  00000-0  51719-3 0  9992,2 52693  53.2164  27.8028 0001427  97.6447 262.4707 15.08846912 45579,6917.859,95.437,540.711,538.737,0.0
52693.0,STARLINK-3946,PAYLOAD,2023-03-09 02:22:16,15.08852881,0.0001339,53.2164,26.9101,91.3677,268.7469,0.00078207,0.00012185,0.0,0 STARLINK-3946,1 52693U 22053AP  23068.09880030  .00012185  00000-0  78207-3 0  9998,2 52693  53.2164  26.9101 0001339  91.3677 268.7469 15.08852881 45205,6917.841,95.437,540.632,538.78,0.0
52693.0,STARLINK-3946,PAYLOAD,2023-03-09 21:26:53,15.08851607,0.0001328,53.2165,23.3449,103.7726,256.3414,0.00066933,0.00010384,0.0,0 STARLINK-3946,1 52693U 22053AP  23068.89367889  .00010384  00000-0  66933-3 0  9990,2 52693  53.2165  23.3449 0001328 103.7726 256.3414 15.08851607 45728,6917.845,95.437,540.629,538.791,0.0
52693.0,STARLINK-3946,PAYLOAD,2023-03-10 02:13:02,15.08868999,0.0001201,53.2175,22.4517,114.8619,245.2498,0.0010967,0.00017223,0.0,0 STARLINK-3946,1 52693U 22053AP  23069.09239415  .00017223  00000-0  10967-2 0  9990,2 52693  53.2175  22.4517 0001201 114.8619 245.2498 15.08868999 45359,6917.792,95.436,540.488,538.826,0.0
52693.0,STARLINK-3946,PAYLOAD,2023-03-10 13:20:44,15.08865636,0.0001079,53.2178,20.3704,46.1171,313.991,0.00091611,0.00014332,0.0,0 STARLINK-3946,1 52693U 22053AP  23069.55607068  .00014332  00000-0  91611-3 0  9998,2 52693  53.2178  20.3704 0001079  46.1171 313.9910 15.08865636 45425,6917.802,95.436,540.413,538.921,0.0
52693.0,STARLINK-3946,PAYLOAD,2023-03-11 03:39:13,15.08825043,8.24e-05,53.2179,17.6967,63.7232,296.3844,-1.6055e-05,-5.43e-06,0.0,0 STARLINK-3946,1 52693U 22053AP  23070.15224374 -.00000543  00000-0 -16055-4 0  9992,2 52693  53.2179  17.6967 0000824  63.7232 296.3844 15.08825043 45514,6917.926,95.439,540.361,539.221,0.0
52693.0,STARLINK-3946,PAYLOAD,2023-03-11 05:14:36,15.08832049,8.77e-05,53.2175,17.3987,74.8685,285.2404,5.3914e-05,5.7e-06,0.0,0 STARLINK-3946,1 52693U 22053AP  23070.21848336  .00000570  00000-0  53914-4 0  9992,2 52693  53.2175  17.3987 0000877  74.8685 285.2404 15.08832049 45920,6917.905,95.438,540.376,539.163,0.0
52693.0,STARLINK-3946,PAYLOAD,2023-03-12 05:05:24,15.08845931,9.51e-05,53.2176,12.9389,66.6541,293.4552,0.00066194,0.00010264,0.0,0 STARLINK-3946,1 52693U 22053AP  23071.21208637  .00010264  00000-0  66194-3 0  9991,2 52693  53.2176  12.9389 0000951  66.6541 293.4552 15.08845931 45672,6917.862,95.437,540.385,539.069,0.0
52693.0,STARLINK-3946,PAYLOAD,2023-03-13 06:31:33,15.08862054,7.6e-05,53.2156,8.179,83.6929,276.4149,0.00044478,6.802e-05,0.0,0 STARLINK-3946,1 52693U 22053AP  23072.27191266  .00006802  00000-0  44478-3 0  9991,2 52693  53.2156   8.1790 0000760  83.6929 276.4149 15.08862054 45836,6917.813,95.436,540.204,539.152,0.0
52693.0,STARLINK-3946,PAYLOAD,2023-03-13 19:14:38,15.08831265,0.000154,53.216,5.7996,117.4855,242.6294,-0.00045208,-7.474e-05,0.0,0 STARLINK-3946,1 52693U 22053AP  23072.80183915 -.00007474  00000-0 -45208-3 0  9992,2 52693  53.2160   5.7996 0001540 117.4855 242.6294 15.08831265 45918,6917.907,95.438,540.837,538.707,0.0
52693.0,STARLINK-3946,PAYLOAD,2023-03-14 12:43:53,15.08839415,0.0001271,53.2149,2.5281,113.2721,246.8405,0.00018346,2.633e-05,0.0,0 STARLINK-3946,1 52693U 22053AP  23073.53048431  .00002633  00000-0  18346-3 0  9999,2 52693  53.2149   2.5281 0001271 113.2721 246.8405 15.08839415 46426,6917.882,95.438,540.626,538.868,0.0
52693.0,STARLINK-3946,PAYLOAD,2023-03-15 04:37:44,15.08872793,0.0001325,53.2159,359.5541,108.2853,251.8283,0.0015378,0.00024293,0.0,0 STARLINK-3946,1 52693U 22053AP  23074.19287854  .00024293  00000-0  15378-2 0  9993,2 52693  53.2159 359.5541 0001325 108.2853 251.8283 15.08872793 46124,6917.78,95.435,540.562,538.729,0.0
